IRIDIUM 155             
1 43573U 18061E   22152.39063204  .00000140  00000+0  42836-4 0  9998
2 43573  86.3939 313.8520 0002400  99.2326 260.9141 14.34212874201698
IRIDIUM 154             
1 43574U 18061F   22152.44135770  .00000155  00000+0  48138-4 0  9990
2 43574  86.3943 313.8935 0001918  89.1652 270.9763 14.34222265201749
IRIDIUM 163             
1 43575U 18061G   22151.72465994  .00000123  00000+0  36940-4 0  9998
2 43575  86.3939 314.1540 0002358  82.8408 277.3056 14.34213882201616
IRIDIUM 156             
1 43576U 18061H   22152.39696140  .00000155  00000+0  48381-4 0  9999
2 43576  86.3941 313.8781 0002486  90.5217 269.6264 14.34220853201698
IRIDIUM 164             
1 43577U 18061J   22152.44771795  .00000166  00000+0  52349-4 0  9997
2 43577  86.3941 313.8747 0001991  86.5052 273.6371 14.34215072201751
IRIDIUM 159             
1 43578U 18061K   22151.99738068  .00000166  00000+0  52253-4 0  9997
2 43578  86.3939 314.0309 0001984  88.9317 271.2106 14.34219347201656
IRIDIUM 180             
1 43922U 19002A   22152.20619550  .00000032  00000+0  44432-5 0  9998
2 43922  86.3988 250.7821 0001837  81.6140 278.5264 14.34214540177331
IRIDIUM 176             
1 43923U 19002B   22152.22064629  .00000574  00000+0  87110-4 0  9992
2 43923  86.6123 250.8108 0002339  94.8521 265.2963 14.72237812181942
IRIDIUM 168             
1 43924U 19002C   22152.26962714  .00000176  00000+0  55960-4 0  9995
2 43924  86.3992 250.7914 0001997  93.0840 267.0585 14.34213571177288
IRIDIUM 173             
1 43925U 19002D   22151.55924666  .00000184  00000+0  58550-4 0  9998
2 43925  86.3985 251.0371 0002093  91.2479 268.8957 14.34218907177165
IRIDIUM 169             
1 43926U 19002E   22151.81801017  .00000217  00000+0  64441-4 0  9995
2 43926  86.4211 282.5387 0005691 145.6150 214.5417 14.38618838177825
IRIDIUM 172             
1 43927U 19002F   22151.55290082  .00000046  00000+0  93372-5 0  9997
2 43927  86.3986 251.0432 0002009  90.6638 269.4788 14.34218673177173
IRIDIUM 175             
1 43928U 19002G   22151.73871432  .00000581  00000+0  88239-4 0  9991
2 43928  86.6124 250.8419 0002198  95.9879 264.1588 14.72241119181861
IRIDIUM 171             
1 43929U 19002H   22152.51063960  .00000149  00000+0  45977-4 0  9990
2 43929  86.3997 250.7855 0001998  94.5456 265.5968 14.34213064177300
IRIDIUM 170             
1 43930U 19002J   22152.22684757  .00000562  00000+0  85200-4 0  9995
2 43930  86.6120 250.8137 0002278 100.9636 259.1838 14.72240401181959
IRIDIUM 167             
1 43931U 19002K   22151.52753404  .00000120  00000+0  35956-4 0  9997
2 43931  86.3987 251.0632 0001861  87.1575 272.9834 14.34214820177167
